[{"OBJECT_NAME":"STARLINK-6253","OBJECT_ID":"2023-088AM","EPOCH":"2026-03-09T22:00:01.999584","MEAN_MOTION":15.07537854,"ECCENTRICITY":0.00020756,"INCLINATION":43.0012,"RA_OF_ASC_NODE":93.1892,"ARG_OF_PERICENTER":276.671,"MEAN_ANOMALY":108.0409,"EPHEMERIS_TYPE":0,"CLASSIFICATION_TYPE":"U","NORAD_CAT_ID":57083,"ELEMENT_SET_NO":999,"REV_AT_EPOCH":542,"BSTAR":0.0036323374,"MEAN_MOTION_DOT":0.00056362,"MEAN_MOTION_DDOT":0},{"OBJECT_NAME":"DELTA 1 DEB","OBJECT_ID":"1978-026BX","EPOCH":"2026-03-09T21:34:36.806304","MEAN_MOTION":15.0275865,"ECCENTRICITY":0.00371244,"INCLINATION":98.0194,"RA_OF_ASC_NODE":65.5332,"ARG_OF_PERICENTER":51.7385,"MEAN_ANOMALY":308.7169,"EPHEMERIS_TYPE":0,"CLASSIFICATION_TYPE":"U","NORAD_CAT_ID":12230,"ELEMENT_SET_NO":999,"REV_AT_EPOCH":36609,"BSTAR":0.0014350783,"MEAN_MOTION_DOT":0.00019449,"MEAN_MOTION_DDOT":0}]
